{
  "links" : {
    "next" : "https://api.nasa.gov/neo/rest/v1/feed?start_date=1997-09-09&end_date=1997-09-09&detailed=true&api_key=t0TVs3DtDT2H8Oy2Zy8m2eVrNsAVKAexjcZXUckd",
    "prev" : "https://api.nasa.gov/neo/rest/v1/feed?start_date=1997-09-07&end_date=1997-09-07&detailed=true&api_key=t0TVs3DtDT2H8Oy2Zy8m2eVrNsAVKAexjcZXUckd",
    "self" : "https://api.nasa.gov/neo/rest/v1/feed?start_date=1997-09-08&end_date=1997-09-08&detailed=true&api_key=t0TVs3DtDT2H8Oy2Zy8m2eVrNsAVKAexjcZXUckd"
  },
  "element_count" : 3,
  "near_earth_objects" : {
    "1997-09-08" : [ {
      "links" : {
        "self" : "https://api.nasa.gov/neo/rest/v1/neo/3485809?api_key=t0TVs3DtDT2H8Oy2Zy8m2eVrNsAVKAexjcZXUckd"
      },
      "neo_reference_id" : "3485809",
      "name" : "(2010 AO60)",
      "nasa_jpl_url" : "http://ssd.jpl.nasa.gov/sbdb.cgi?sstr=3485809",
      "absolute_magnitude_h" : 21.8,
      "estimated_diameter" : {
        "kilometers" : {
          "estimated_diameter_min" : 0.1160259082,
          "estimated_diameter_max" : 0.2594418179
        },
        "meters" : {
          "estimated_diameter_min" : 116.0259082094,
          "estimated_diameter_max" : 259.4418179074
        },
        "miles" : {
          "estimated_diameter_min" : 0.0720951346,
          "estimated_diameter_max" : 0.1612096218
        },
        "feet" : {
          "estimated_diameter_min" : 380.6624406898,
          "estimated_diameter_max" : 851.1870938635
        }
      },
      "is_potentially_hazardous_asteroid" : false,
      "close_approach_data" : [ {
        "close_approach_date" : "1997-09-08",
        "epoch_date_close_approach" : 873702000000,
        "relative_velocity" : {
          "kilometers_per_second" : "11.1781492812",
          "kilometers_per_hour" : "40241.3374123301",
          "miles_per_hour" : "25004.4021271225"
        },
        "miss_distance" : {
          "astronomical" : "0.3074858298",
          "lunar" : "119.6119842529",
          "kilometers" : "45999224",
          "miles" : "28582592"
        },
        "orbiting_body" : "Earth"
      } ],
      "orbital_data" : {
        "orbit_id" : "27",
        "orbit_determination_date" : "2017-04-06 08:58:35",
        "orbit_uncertainty" : "3",
        "minimum_orbit_intersection" : ".0820491",
        "jupiter_tisserand_invariant" : "6.285",
        "epoch_osculation" : "2458000.5",
        "eccentricity" : ".2477798160599138",
        "semi_major_axis" : ".9508631738825691",
        "inclination" : "11.07183266420371",
        "ascending_node_longitude" : "310.0379972340563",
        "orbital_period" : "338.6690181469251",
        "perihelion_distance" : ".7152584715598003",
        "perihelion_argument" : "37.23917800993256",
        "aphelion_distance" : "1.186467876205338",
        "perihelion_time" : "2458162.496111128822",
        "mean_anomaly" : "187.8006050701821",
        "mean_motion" : "1.062984745312076",
        "equinox" : "J2000"
      }
    }, {
      "links" : {
        "self" : "https://api.nasa.gov/neo/rest/v1/neo/3636713?api_key=t0TVs3DtDT2H8Oy2Zy8m2eVrNsAVKAexjcZXUckd"
      },
      "neo_reference_id" : "3636713",
      "name" : "(2013 HG20)",
      "nasa_jpl_url" : "http://ssd.jpl.nasa.gov/sbdb.cgi?sstr=3636713",
      "absolute_magnitude_h" : 21.0,
      "estimated_diameter" : {
        "kilometers" : {
          "estimated_diameter_min" : 0.1677084622,
          "estimated_diameter_max" : 0.3750075218
        },
        "meters" : {
          "estimated_diameter_min" : 167.7084621628,
          "estimated_diameter_max" : 375.0075217981
        },
        "miles" : {
          "estimated_diameter_min" : 0.1042091748,
          "estimated_diameter_max" : 0.2330187988
        },
        "feet" : {
          "estimated_diameter_min" : 550.2246310023,
          "estimated_diameter_max" : 1230.3396778159
        }
      },
      "is_potentially_hazardous_asteroid" : false,
      "close_approach_data" : [ {
        "close_approach_date" : "1997-09-08",
        "epoch_date_close_approach" : 873702000000,
        "relative_velocity" : {
          "kilometers_per_second" : "14.6769158601",
          "kilometers_per_hour" : "52836.8970963452",
          "miles_per_hour" : "32830.7930874485"
        },
        "miss_distance" : {
          "astronomical" : "0.1126851891",
          "lunar" : "43.8345375061",
          "kilometers" : "16857464",
          "miles" : "10474743"
        },
        "orbiting_body" : "Earth"
      } ],
      "orbital_data" : {
        "orbit_id" : "34",
        "orbit_determination_date" : "2017-04-06 08:46:00",
        "orbit_uncertainty" : "3",
        "minimum_orbit_intersection" : ".054397",
        "jupiter_tisserand_invariant" : "3.452",
        "epoch_osculation" : "2458000.5",
        "eccentricity" : ".5742469655863407",
        "semi_major_axis" : "2.170118739966317",
        "inclination" : "4.173968325899697",
        "ascending_node_longitude" : "203.8176028232429",
        "orbital_period" : "1167.679545998272",
        "perihelion_distance" : ".9239346385786064",
        "perihelion_argument" : "88.97758537421397",
        "aphelion_distance" : "3.416302841354028",
        "perihelion_time" : "2457665.838644334807",
        "mean_anomaly" : "103.1773558527741",
        "mean_motion" : ".3083037647047496",
        "equinox" : "J2000"
      }
    }, {
      "links" : {
        "self" : "https://api.nasa.gov/neo/rest/v1/neo/3759000?api_key=t0TVs3DtDT2H8Oy2Zy8m2eVrNsAVKAexjcZXUckd"
      },
      "neo_reference_id" : "3759000",
      "name" : "(2016 RG17)",
      "nasa_jpl_url" : "http://ssd.jpl.nasa.gov/sbdb.cgi?sstr=3759000",
      "absolute_magnitude_h" : 23.0,
      "estimated_diameter" : {
        "kilometers" : {
          "estimated_diameter_min" : 0.0667659413,
          "estimated_diameter_max" : 0.1492931834
        },
        "meters" : {
          "estimated_diameter_min" : 66.7659413495,
          "estimated_diameter_max" : 149.2931834393
        },
        "miles" : {
          "estimated_diameter_min" : 0.0414864197,
          "estimated_diameter_max" : 0.0927664547
        },
        "feet" : {
          "estimated_diameter_min" : 219.0483710172,
          "estimated_diameter_max" : 489.807047955
        }
      },
      "is_potentially_hazardous_asteroid" : false,
      "close_approach_data" : [ {
        "close_approach_date" : "1997-09-08",
        "epoch_date_close_approach" : 873702000000,
        "relative_velocity" : {
          "kilometers_per_second" : "16.118070404",
          "kilometers_per_hour" : "58025.0534542387",
          "miles_per_hour" : "36054.5116866074"
        },
        "miss_distance" : {
          "astronomical" : "0.1175412554",
          "lunar" : "45.7235488892",
          "kilometers" : "17583922",
          "miles" : "10926142"
        },
        "orbiting_body" : "Earth"
      } ],
      "orbital_data" : {
        "orbit_id" : "10",
        "orbit_determination_date" : "2017-04-06 08:24:09",
        "orbit_uncertainty" : "6",
        "minimum_orbit_intersection" : ".0439429",
        "jupiter_tisserand_invariant" : "7.014",
        "epoch_osculation" : "2458000.5",
        "eccentricity" : ".5694000469726017",
        "semi_major_axis" : ".811473868237482",
        "inclination" : "21.98842648421686",
        "ascending_node_longitude" : "170.128530929548",
        "orbital_period" : "266.9993691112638",
        "perihelion_distance" : ".3494206095460209",
        "perihelion_argument" : "29.10615943808801",
        "aphelion_distance" : "1.273527126928943",
        "perihelion_time" : "2458100.848111036764",
        "mean_anomaly" : "224.6988564299537",
        "mean_motion" : "1.348317792653589",
        "equinox" : "J2000"
      }
    } ]
  }
}